id,identifier,govIdentifier,URL,name,description,siteAddressStreet,siteAddressCity,siteAddressCounty,siteAddressCountry,siteAddressPostcode,latitude,longitude,telephone,openingHours,ownerID,ownerName,operatorID,operatorCompanyID,operatorName,operatorAddressStreet,operatorAddressCity,operatorAddressCounty,operatorAddressCountry,operatorAddressPostcode,dateOpened,dateClosed,areaServed,charge,proofOfResidency,accessibilityNotes,pedestrianAccess,trade,ANPR,reuseShop,dateUpdated,dateValidFrom,dateValidTo,wikidataQid
841,hwrc-wal-crf-vp3295eu,VP3295EU,,Bessemer Close Household And Commercial Waste Recycling Centre,,Leckwith,Cardiff,,wal,CF11 8XA,51.45872057,-3.210435692,,,crf,City of Cardiff Council,,,Cardiff County Council,,,,,,39358,,,0,,,,,,,44276,,,Q5038400
842,hwrc-wal-crf-ep3995fl,EP3995FL,,Lamby Way Depot,,"Lamby Way Depot, Lamby Way",Cardiff,,wal,CF3 2HP,51.49810079,-3.124177157,,,crf,City of Cardiff Council,,,Cardiff Council,,,,,,42429,,,0,,,,,,,44276,,,Q5038400
843,hwrc-wal-vgl-jb3535rs,JB3535RS,,Court Road Civic Amenity Site,,,Barry,,wal,CF63 1ET,51.41053141,-3.262507569,,,vgl,Vale of Glamorgan Council,,,Vale Of Glamorgan Council,,,,,,33960,,,0,,,,,,,44276,,,Q7909538
844,hwrc-wal-vgl-up3395vq,UP3395VQ,,Atlantic H W R C,,Atlantic H W R C,Barry,,wal,CF63 3RF,51.3976471,-3.245578651,,,vgl,Vale of Glamorgan Council,,,FCC Waste Services (UK) Limited,,,,,,42536,,,0,,,,,,,44276,,,Q7909538
845,hwrc-wal-rct-zp3495ez,ZP3495EZ,,Treforest Civic Amenity Site,,"Treforest Civic Amenity Site, Treforest Industrial Est",Pontypridd,,wal,CF37 5YR,51.57038007,-3.289109633,,,rct,Rhondda Cynon Taf County Borough Council,,,Cynon Valley Waste Disposal Co Ltd,,,,,,39427,,,0,,,,,,,44276,,,Q7321391
846,hwrc-wal-cay-lp3895fk,LP3895FK,,Trehir Civic Amenity Site,,"Trehir Quarry, Pandy Lane",Llanbradach,,wal,CF83 3RP,51.59841283,-3.223964803,,,cay,Caerphilly County Borough Council,,,Caerphilly County Borough Council,,,,,,35915,,,0,,,,,,,44276,,,Q5016926
847,hwrc-wal-cay-wp3490vw,WP3490VW,,Full Moon Waste Transfer Station,,Cross Keys,Newport,,wal,NP11 7BD,51.61554105,-3.13922398,,,cay,Caerphilly County Borough Council,,,Caerphilly County Borough Council,,,,,,34676,,,0,,,,,,,44276,,,Q5016926
848,hwrc-wal-rct-wb3793hf,WB3793HF,,Llantrisant Community Recycling Centre,,Pantybrad,Llantrisant,,wal,CF72 8LP,51.55638619,-3.384797771,,,rct,Rhondda Cynon Taf County Borough Council,,,Cynon Valley Waste Disposal Company Ltd,,,,,,42258,,,0,,,,,,,44276,,,Q7321391
849,hwrc-wal-cay-wp3391ep,WP3391EP,,Penmaen Civic Amenity Site,,Pontllanfraith,Blackwood,,wal,NP12 2XZ,51.65827596,-3.184895313,,,cay,Caerphilly County Borough Council,,,Caerphilly County Borough Council,,,,,,37538,,,0,,,,,,,44276,,,Q5016926
850,hwrc-wal-cay-ep3795fq,EP3795FQ,,Penallta Civic Amenity Site,,"Penallta Civic Amenity Site, Penallta Industrial Estate",Hengoed,,wal,CF82 7ST,51.65724444,-3.244617948,,,cay,Caerphilly County Borough Council,,,Caerphilly County Borough Council,,,,,,38300,,,0,,,,,,,44276,,,Q5016926
851,hwrc-wal-rct-wp3195fu,WP3195FU,,Dinas Community Recycling Centre,,"Cymmer Road, Dinas",Porth,,wal,CF39 3BL,51.61445231,-3.422701976,,,rct,Rhondda Cynon Taf County Borough Council,,,Cynon Valley Waste Disposal Co Ltd,,,,,,43494,,,0,,,,,,,44276,,,Q7321391
852,hwrc-wal-cay-rp3395fm,RP3395FM,,Aberbargoed Civic Amenity Site,,Aberbargoed,Bargoed,,wal,CF81 9EP,51.68396257,-3.215928378,,,cay,Caerphilly County Borough Council,,,Caerphilly County Borough Council,,,,,,38796,,,0,,,,,,,44276,,,Q5016926
853,hwrc-wal-vgl-cp3798fl,CP3798FL,,Gluepot Road Civic Amenity Site,,"Gluepot Road, Llandow Trading Estate",Llandow,,wal,CF71 7PB,51.4332907,-3.506777981,,,vgl,Vale of Glamorgan Council,,,FCC Waste Services (UK) Limited,,,,,,42536,,,0,,,,,,,44276,,,Q7909538
854,hwrc-wal-tof-lb3290hk,LB3290HK,,New Inn Waste Transfer Station,,"Panteg Way, New Inn",Torfaen,,wal,NP4 0LS,51.69225043,-3.017609725,,,tof,Torfaen County Borough Council,,,FCC Recycling (UK) Limited,,,,,,42621,,,0,,,,,,,44276,,,Q7825688
855,hwrc-wal-mty-zb3197tj,ZB3197TJ,,Aberfan Household Waste And Recycling Centre,,Aberfan Road,Aberfan,,wal,CF48 4QE,51.69522985,-3.34218206,,,mty,Merthyr Tydfil County Borough Council,,,Merthyr Tydfil County Borough Council,,,,,,43346,,,0,,,,,,,44276,,,Q16997658
856,hwrc-wal-rct-pp3095fd,PP3095FD,,Gelli C A Site,,,Gelli,,wal,CF41 7TL,51.64180768,-3.477854781,,,rct,Rhondda Cynon Taf County Borough Council,,,Amgen Rhondda Ltd,,,,,,34773,,,0,,,,,,,44276,,,Q7321391
857,hwrc-wal-rct-rp3995fv,RP3995FV,,Ferndale Community Recycling Centre,,,Ferndale,,wal,CF43 4RF,51.6671334,-3.456627197,,,rct,Rhondda Cynon Taf County Borough Council,,,Cynon Valley Waste Disposal Co Ltd,,,,,,38791,,,0,,,,,,,44276,,,Q7321391
858,hwrc-wal-bge-fp3894sz,FP3894SZ,,Brynmenyn Civic Amenity Site,,"Brynmenyn Ind Est, Brynmenyn",Bridgend,,wal,CF32 9TQ,51.54899195,-3.58064999,,,bge,Bridgend County Borough Council,,,Kier Services Limited,,,,,,42968,,,0,,,,,,,44276,,,Q4966533
859,hwrc-wal-mon-wp3599fy,WP3599FY,,Five Lanes Transfer Station And H W R C,,Caerwent,Caldicott,,wal,NP26 3AY,51.61415843,-2.805836394,,,mon,Monmouthshire County Council,,,Dragon Waste Ltd,,,,,,34031,,,0,,,,,,,44276,,,Q6901162
860,hwrc-wal-mon-dp3999fh,DP3999FH,,Maryport Street / Usk C A Site,,Maryport Street,Usk,,wal,NP15 1AB,51.70183181,-2.904881449,,,mon,Monmouthshire County Council,,,Dragon Waste Ltd,,,,,,34376,,,0,,,,,,,44276,,,Q6901162
861,hwrc-wal-rct-qp3799fr,QP3799FR,,Treorchy Civic Amenity Site,,Cemetery Road,Treorchy,,wal,CF42 6TB,51.66845204,-3.508857938,,,rct,Rhondda Cynon Taf County Borough Council,,,Amgen Rhondda Ltd,,,,,,34773,,,0,,,,,,,44276,,,Q7321391
862,hwrc-wal-cay-qp3899fy,QP3899FY,,Lawn Civic Amenity Site,,"The Lawns Industrial Estate, Rhymney",Tredegar,,wal,NP22 5PW,51.75739315,-3.283084987,,,cay,Caerphilly County Borough Council,,,Caerphilly County Borough Council,,,,,,34884,,,0,,,,,,,44276,,,Q5016926
863,hwrc-wal-bge-fp3893vn,FP3893VN,,Tythegston Civic Amenity Site,,Tythegston Civic Amenity Site,Tythegston,,wal,CF32 0NE,51.49959212,-3.657258036,,,bge,Bridgend County Borough Council,,,Kier Services Limited,,,,,,42968,,,0,,,,,,,44276,,,Q4966533
864,hwrc-wal-mty-zb3797th,ZB3797TH,,Dowlais Household Waste and Recycling Centre,,"The Bont, Gellifaelog Old Road",Merthyr Tydfil,,wal,CF48 3DA,51.7598149,-3.361136599,,,mty,Merthyr Tydfil County Borough Council,,,Merthyr Tydfil County Borough Council,,,,,,43530,,,0,,,,,,,44276,,,Q16997658
865,hwrc-wal-bgw-rp3895fn,RP3895FN,,New Vale,,,Ebbw Vale,,wal,NP23 6PL,51.78752271,-3.225047557,,,bgw,Blaenau Gwent County Borough Council,,,Silent Valley Waste Disposal Ltd,,,,,,38874,,,0,,,,,,,44276,,,Q4923796
866,hwrc-wal-bge-fp3894lx,FP3894LX,,Heol Ty Gwyn Civic Amenity Site,,"Heol Ty Gwyn Ind Est, Maesteg",Bridgend,,wal,CF34 0BQ,51.61293899,-3.671220061,,,bge,Bridgend County Borough Council,,,Kier Services Limited,,,,,,42968,,,0,,,,,,,44276,,,Q4966533
867,hwrc-wal-ntl-fb3539dv,FB3539DV,,Cymmer Household Waste Recycling Centre,,Margam Street,Port Talbot,,wal,SA13 3EE,51.65115583,-3.65214234,,,ntl,Neath Port Talbot County Borough Council,,,F C C Waste Services ( U K ) Limited,,,,,,42675,,,0,,,,,,,44276,,,Q6984500
868,hwrc-wal-swa-hb3997td,HB3997TD,,Garngoch Civic Amenity Site,,,Garngoch Ind Est,,wal,SA4 9WF,51.65105087,-3.652572183,,,swa,City and County of Swansea Council,,,City and County of Swansea,,,,,,36242,,,0,,,,,,,44276,,,Q5123523
869,hwrc-wal-mon-dp3099fv,DP3099FV,,Mitchell Troy Household Waste Recycling Centre,,"Mitchell Troy H W R C, Mitchel Troy",Monmouth,,wal,NP25 4HX,51.80162906,-2.715359597,,,mon,Monmouthshire County Council,,,Dragon Waste Ltd,,,,,,34376,,,0,,,,,,,44276,,,Q6901162
870,hwrc-wal-ntl-fb3539az,FB3539AZ,,Briton Ferry Household Waste Recycling Centre,,"Briton Ferry H W R C, Briton Ferry Ind Estate",Briton Ferry,,wal,SA11 2HZ,51.63057032,-3.827628552,,,ntl,Neath Port Talbot County Borough Council,,,F C C Waste Services ( U K ) Limited,,,,,,38460,,,0,,,,,,,44276,,,Q6984500
871,hwrc-wal-pow-tb3190hn,TB3190HN,,Brecon Recycling Centre,,,Brecon,,wal,LD3 8LA,51.93986054,-3.412318434,,,pow,Powys County Council,,,Sundorne Products (llanidloes) Limited,,,,,,38236,,,0,,,,,,,44276,,,Q7236943
872,hwrc-wal-swa-qb3032rw,QB3032RW,,Swansea Baling Plant,,Swansea Enterprise Park,Swansea,,wal,SA6 8QN,51.65815125,-3.919925052,,,swa,City and County of Swansea Council,,,City And County Of Swansea,,,,,,42689,,,0,,,,,,,44276,,,Q5123523
873,hwrc-wal-swa-hb3097ts,HB3097TS,,Penlan Civic Amenity Site,,Penlan Civic Amenity Site,Penlan,,wal,SA5 7BX,51.64845737,-3.96234568,,,swa,City and County of Swansea Council,,,City and County of Swansea,,,,,,35154,,,0,,,,,,,44276,,,Q5123523
874,hwrc-wal-swa-hb3397tk,HB3397TK,,Clyne Civic Amenity Site,,Ynys Newydd,Clyne,,wal,SA2 8DY,51.60644401,-4.00019015,,,swa,City and County of Swansea Council,,,City and County of Swansea,,,,,,43307,,,0,,,,,,,44276,,,Q5123523
875,hwrc-wal-cmn-dp3091sz,DP3091SZ,,Wernddu Civic Amenity And Transfer Station,,"Wernddu Civic Amenity & Transfer Station, Wernddu Road",Ammanford,,wal,SA18 2UR,51.81996783,-3.963973032,,,cmn,Carmarthenshire County Council,,,CWM Environmental Ltd,,,,,,37932,,,0,,,,,,,44276,,,Q5043224
876,hwrc-wal-cmn-zp3698fp,ZP3698FP,,Trostre Civic Amenity / Transfer Station,,Trostre Road Ind Est,Llanelli,,wal,SA14 9UU,51.67314448,-4.139270327,,,cmn,Carmarthenshire County Council,,,CWM Environmental Ltd,,,,,,43241,,,0,,,,,,,44276,,,Q5043224
877,hwrc-wal-pow-lp3395fj,LP3395FJ,,The Graig Yffaldau Waste Transfer,,"The Graig Yffauldau Waste Transfer Station, Llandegley",Llandrindod Wells,,wal,LD1 5UD,52.25612482,-3.27337577,,,pow,Powys County Council,,,Powys Environmental Ltd,,,,,,43199,,,0,,,,,,,44276,,,Q7236943
878,hwrc-wal-cgn-jp3798fh,JP3798FH,,Penrhos Depot Hazardous Waste Transfer Station,,,Llandysul,,wal,SA44 4SX,52.08439817,-4.363427915,,,cgn,Ceredigion County Council,,,Ceredigion County Council,,,,,,39072,,,0,,,,,,,44276,,,Q5064127
879,hwrc-wal-cmn-cp3292em,CP3292EM,,Whitland Recycling Centre & Civic Amenity Site,,,Whitland,,wal,SA34 0AE,51.82006382,-4.623940996,,,cmn,Carmarthenshire County Council,,,CWM Environmental Ltd,,,,,,39041,,,0,,,,,,,44276,,,Q5043224
880,hwrc-wal-cgn-xb3397tp,XB3397TP,,Rhydeinon Civic Amenity Site,,Rhydeinon,Llanarth,,wal,SA47 0QP,52.16631538,-4.29579232,,,cgn,Ceredigion County Council,,,LAS Recycling Ltd,,,,,,43437,,,0,,,,,,,44276,,,Q5064127
881,hwrc-wal-pem-nb3193hn,NB3193HN,,Crane Cross Civic Amenity & Recycling Centre,,"Crane Cross, Devonshire Drive",Saundersfoot,,wal,SA69 9EE,51.70193653,-4.726200918,,,pem,Pembrokeshire County Council,,,Pembrokeshire County Council,,,,,,42853,,,0,,,,,,,44276,,,Q7161994
882,hwrc-wal-pem-fp3298fd,FP3298FD,,Hermon Civic Amenity and recycling centre,,Hermon,Crymych,,wal,SA41 3QT,51.95833064,-4.63048326,,,pem,Pembrokeshire County Council,,,Pembrokeshire County Council,,,,,,43012,,,0,,,,,,,44276,,,Q7161994
883,hwrc-wal-pow-wp3395ek,WP3395EK,,Vastre,,Unit 39,Newtown,,wal,SY16 1DZ,52.5136671,-3.304314385,,,pow,Powys County Council,,,Powys County Council,,,,,,42445,,,0,,,,,,,44276,,,Q7236943
884,hwrc-wal-pow-up3895cn,UP3895CN,,"G F Potter, Household Waste Recycling Site",,,Newtown,,wal,SY16 3DN,52.5168404,-3.297806032,,,pow,Powys County Council,,,James Edward Potter,,,,,,37383,,,0,,,,,,,44276,,,Q7236943
885,hwrc-wal-cgn-qp3198fu,QP3198FU,,Rheidol Recycling Park,,Glan-yr-afon Ind Est,Aberystwyth,,wal,SY23 3JQ,52.40124048,-4.045789247,,,cgn,Ceredigion County Council,,,C B Environmental Ltd,,,,,,39503,,,0,,,,,,,44276,,,Q5064127
886,hwrc-wal-cgn-tb3497tj,TB3497TJ,,Glan Yr Afon Waste Transfer Station,,,Aberystwyth,,wal,SY23 3JQ,52.40133886,-4.047895941,,,cgn,Ceredigion County Council,,,Cyngor Sir Ceredigion County Council,,,,,,34809,,,0,,,,,,,44276,,,Q5064127
887,hwrc-wal-cgn-xb3097ta,XB3097TA,,Cilmaenllwyd Civic Amenity Site,,Pen Parc,Cardigan,,wal,SA43 1RD,52.10324658,-4.624272378,,,cgn,Ceredigion County Council,,,D I Evans,,,,,,37561,,,0,,,,,,,44276,,,Q5064127
888,hwrc-wal-pem-bp3791la,BP3791LA,,Waterloo Recycling Centre,,Waterloo Ind Est,Pembroke Dock,,wal,SA72 4RT,51.6958678,-4.920922868,,,pem,Pembrokeshire County Council,,,Pembrokeshire County Council,,,,,,34978,,,0,,,,,,,44276,,,Q7161994
889,hwrc-wal-pem-qp3098fl,QP3098FL,,Withyhedge Material Recycling Facility,,"Withyhedge MRF, Bowling Farm",Haverfordwest,,wal,SA62 4DB,51.84261164,-4.957193476,,,pem,Pembrokeshire County Council,,,Resources Management U K Ltd,,,,,,43039,,,0,,,,,,,44276,,,Q7161994
890,hwrc-wal-pem-fp3798fx,FP3798FX,,Winsel Civic Amenity & Recycling Site,,"Old Hakin Road, Merlins Bridge",Haverfordwest,,wal,SA61 1XG,51.77801974,-5.003915091,,,pem,Pembrokeshire County Council,,,Pembrokeshire County Council,,,,,,43006,,,0,,,,,,,44276,,,Q7161994
891,hwrc-wal-pow-bp3090st,BP3090ST,,Potters Yard,,Severn Road,Welshpool,,wal,SY21 7AZ,52.65836263,-3.138223149,,,pow,Powys County Council,,,James Edward Potter,,,,,,43088,,,0,,,,,,,44276,,,Q7236943
892,hwrc-wal-pem-fp3198fa,FP3198FA,,Manorowen Civic Amenity and recycling centre,,Manorowen,Fishguard,,wal,SA65 9QE,51.9805407,-5.00785768,,,pem,Pembrokeshire County Council,,,Pembrokeshire County Council,,,,,,43012,,,0,,,,,,,44276,,,Q7161994
893,hwrc-wal-pem-fp3698fm,FP3698FM,,St Davids Civic Amenity and recyciling centre,,Fishguard Road,St Davids,,wal,SA62 6XE,51.89503176,-5.220604915,,,pem,Pembrokeshire County Council,,,Pembrokeshire County Council,,,,,,43012,,,0,,,,,,,44276,,,Q7161994
894,hwrc-wal-gwn-yp3794ev,YP3794EV,,Gwynedd Council,,,Dolgellau,,wal,LL40 2YF,52.74646436,-3.877735075,,,gwn,Gwynedd Council,,,Gwynedd Council,,,,,,40689,,,0,,,,,,,44276,,,Q5623821
895,hwrc-wal-gwn-pp3392fd,PP3392FD,,Bala Civic Amenity Site,,Bala Industrial Estate,Bala,,wal,LL23 7NL,52.91011267,-3.591588324,,,gwn,Gwynedd Council,,,Gwynedd Council,,,,,,38954,,,0,,,,,,,44276,,,Q5623821
896,hwrc-wal-wrx-np3095ew,NP3095EW,,Plas Madoc Household Waste Recycling Centre,,Wynnstay Industrial Estate,Wrexham,,wal,LL14 1TP,52.9828941,-3.055920733,,,wrx,Wrexham County Borough Council,,,F C C Recycling ( U K ) Limited,,,,,,39378,,,0,,,,,,,44276,,,Q8038115
897,hwrc-wal-gwn-pp3294fj,PP3294FJ,,Ffridd Rasus Waste Management Facility,,Morfa Road,Harlech,,wal,LL46 2UW,52.88345352,-4.112746727,,,gwn,Gwynedd Council,,,Gwynedd Council,,,,,,43188,,,0,,,,,,,44276,,,Q5623821
898,hwrc-wal-wrx-dp3294fh,DP3294FH,,Bryn Lane Civic Amenity Site,,"Land / Premises At, Bryn Lane",Wrexham,,wal,LL13 9UT,53.04487473,-2.912849955,,,wrx,Wrexham County Borough Council,,,3C Waste Limited ,,,,,,38168,,,0,,,,,,,44276,,,Q8038115
899,hwrc-wal-wrx-np3395eq,NP3395EQ,,Brymbo Household Waste Recycling Centre,,"Off Solvay Road, Wrexham Road",Wrexham,,wal,LL11 5NR,53.0647417,-3.043953594,,,wrx,Wrexham County Borough Council,,,F C C Recycling ( U K ) Limited,,,,,,39378,,,0,,,,,,,44276,,,Q8038115
900,hwrc-wal-gwn-eb3836ac,EB3836AC,,Recycling Centre At Blaenau Ffestiniog,,"Rhiwbryfdir Ind Est, Rhiwbryfdir",Blaenau Ffestiniog,,wal,LL41 3LU,53.0017188,-3.943148821,,,gwn,Gwynedd Council,,,Gwynedd Council,,,,,,40953,,,0,,,,,,,44276,,,Q5623821
901,hwrc-wal-gwn-pp3492fj,PP3492FJ,,Pwllheli Civic Amenity Site,,,Pwllheli,,wal,LL53 6YT,52.8914573,-4.402032439,,,gwn,Gwynedd Council,,,Gwynedd Council,,,,,,39283,,,0,,,,,,,44276,,,Q5623821
902,hwrc-wal-gwn-pp3594fm,PP3594FM,,Rhwngyddwyryd Civic Amenity Site,,,Garndolbenmaen,,wal,LL51 9LQ,52.95821546,-4.24403409,,,gwn,Gwynedd Council,,,Gwynedd Council,,,,,,34683,,,0,,,,,,,44276,,,Q5623821
903,hwrc-wal-den-bp3691et,BP3691ET,,Ruthin Civic Amenity Site,,"Her Lon Parcwr, Lon Parcwr Estate",Ruthin,,wal,LL15 1NJ,53.12211909,-3.312114489,,,den,Denbighshire County Council,,,C A D Recycling Ltd,,,,,,43046,,,0,,,,,,,44276,,,Q5256629
904,hwrc-wal-fln-bp3294vp,BP3294VP,,Mold Recycling Park,,Mold Recycling Park,Mold,,wal,CH7 4ED,53.14621147,-3.131661862,,,fln,Flintshire County Council,,,Flintshire County Council,,,,,,35720,,,0,,,,,,,44276,,,Q16837157
905,hwrc-wal-fln-bp3291eb,BP3291EB,,Globe Way Recycling Park,,"Globe Way Recycling Park, Spencer Industrial Estate",Buckley,,wal,CH7 3LY,53.17673902,-3.06645156,,,fln,Flintshire County Council,,,Flintshire County Council,,,,,,34775,,,0,,,,,,,44276,,,Q16837157
906,hwrc-wal-den-bp3694vk,BP3694VK,,Denbigh Civic Amenity Site,,Colomendy Industrial Estate,Denbigh,,wal,LL16 3EA,53.18992379,-3.414540196,,,den,Denbighshire County Council,,,C A D Recycling Ltd,,,,,,43045,,,0,,,,,,,44276,,,Q5256629
907,hwrc-wal-fln-xb3597tm,XB3597TM,,Sandycroft Recycling Park,,Sandycroft,Deeside,,wal,CH5 2PX,53.19852935,-2.991499692,,,fln,Flintshire County Council,,,Flintshire County Council,,,,,,41544,,,0,,,,,,,44276,,,Q16837157
908,hwrc-wal-fln-bp3295vs,BP3295VS,,Queensferry Recycling Park,,Queensferry,Deeside,,wal,CH5 1TD,53.20397459,-3.021553811,,,fln,Flintshire County Council,,,Flintshire County Council,,,,,,34141,,,0,,,,,,,44276,,,Q16837157
909,hwrc-wal-fln-bp3299vh,BP3299VH,,Dock Road Recycling Park,,Connah's Quay,Deeside,,wal,CH5 4DS,53.21784835,-3.048077982,,,fln,Flintshire County Council,,,Flintshire County Council,,,,,,34141,,,0,,,,,,,44276,,,Q16837157
910,hwrc-wal-fln-ab3997cd,AB3997CD,,Oakenholt Household Waste Recycling Centre,,"Chester Road, Oakenholt",Flint,,wal,CH6 5SF,53.23810133,-3.109616381,,,fln,Flintshire County Council,,,Flintshire County Council,,,,,,43362,,,0,,,,,,,44276,,,Q16837157
911,hwrc-wal-fln-bp3297ez,BP3297EZ,,Flint Recycling Park,,"Flint Recycling Park, Castle Ind Est",Flint,,wal,CH6 5XA,53.25443938,-3.136795458,,,fln,Flintshire County Council,,,Flintshire County Council,,,,,,34598,,,0,,,,,,,44276,,,Q16837157
912,hwrc-wal-gwn-qp3994fz,QP3994FZ,,Caergylchu Waste Management Facility,,Cibyn Industrial Estate,Caernarfon,,wal,LL55 2BD,53.14107864,-4.243331091,,,gwn,Gwynedd Council,,,Gwynedd Council,,,,,,42797,,,0,,,,,,,44276,,,Q5623821
913,hwrc-wal-fln-bp3298vk,BP3298VK,,Greenfield Recycling Park,,Greenfield Recycling Park,Greenfield,,wal,CH8 7GJ,53.28485437,-3.190688405,,,fln,Flintshire County Council,,,Flintshire County Council,,,,,,39113,,,0,,,,,,,44276,,,Q16837157
914,hwrc-wal-cwy-mb3097tg,MB3097TG,,Abergele Civic Amenity Site,,Rhuddlan Road,Abergele,,wal,LL22 9SE,53.28542768,-3.545021234,,,cwy,Conwy County Borough Council,,,Bryson Recycling Ltd,,,,,,42460,,,0,,,,,,,44276,,,Q5166758
915,hwrc-wal-gwn-qp3794ft,QP3794FT,,Llandygai Civic Amenity Site,,Stad Diwydiannol Llandygai,Bangor,,wal,LL57 4YH,53.21737133,-4.108673993,,,gwn,Gwynedd Council,,,Gwynedd Council,,,,,,38947,,,0,,,,,,,44276,,,Q5623821
916,hwrc-wal-den-hp3394vk,HP3394VK,,Rhyl Recycling Park,,"Marsh Road, Rhyl",Rhyl,,wal,LL18 2AD,53.31006019,-3.497024398,,,den,Denbighshire County Council,,,C A D Recycling Ltd,,,,,,43046,,,0,,,,,,,44276,,,Q5256629
917,hwrc-wal-cwy-mb3397tz,MB3397TZ,,Mochdre Civic Amenity Site,,"Civic Amenity Site, Bron -y- Nant Road",Colwyn Bay,,wal,LL28 4YL,53.29811029,-3.759250498,,,cwy,Conwy County Borough Council,,,Bryson Recycling Ltd,,,,,,39596,,,0,,,,,,,44276,,,Q5166758
918,hwrc-wal-agy-jb3132rc,JB3132RC,,Penhesgyn House Waste Recycling Centre,,Llansadwryn,Menai Bridge,,wal,LL59 5UR,53.24449095,-4.19993671,,,agy,Isle of Anglesey County Council,,,Isle Of Anglesey County Council,,,,,,41166,,,0,,,,,,,44276,,,Q6083890
919,hwrc-wal-agy-rp3694fk,RP3694FK,,Gwalchmai Civic Amenity Site,,Gwalchmai,Holyhead,,wal,LL65 4PW,53.26038135,-4.428874359,,,agy,Isle of Anglesey County Council,,,Isle Of Anglesey County Council,,,,,,38471,,,0,,,,,,,44276,,,Q6083890
